{
  "type": "FeatureCollection",
  "features": [
    {
      "type": "Feature",
      "properties": {
        "norad_id": 36744,
        "name": "COMS 1",
        "group": "weather",
        "lat": -0.6957488235635612,
        "lon": -93.03292162966177,
        "alt_km": 35782.43636014356,
        "timestamp": "2025-12-12T03:50:52.059063+00:00",
        "meta_object_name": "COMS 1",
        "meta_object_id": "2010-032A",
        "meta_epoch": "2025-12-11T14:07:19.055136",
        "meta_mean_motion": 1.0027057,
        "meta_eccentricity": 0.00010641,
        "meta_inclination": 4.3387,
        "meta_ra_of_asc_node": 78.01,
        "meta_arg_of_pericenter": 211.1746,
        "meta_mean_anomaly": 131.3634,
        "meta_ephemeris_type": 0,
        "meta_classification_type": "U",
        "meta_norad_cat_id": 36744,
        "meta_element_set_no": 999,
        "meta_rev_at_epoch": 4920,
        "meta_bstar": 0,
        "meta_mean_motion_dot": -3.37e-06,
        "meta_mean_motion_ddot": 0,
        "tle_line1": "1 36744U 10032A   25345.58841499 -.00000337  00000+0  00000+0 0  9999",
        "tle_line2": "2 36744   4.3387  78.0100 0001064 211.1746 131.3634  1.00270570 49208"
      },
      "geometry": {
        "type": "Point",
        "coordinates": [
          -93.03292162966177,
          -0.6957488235635612
        ]
      }
    },
    {
      "type": "Feature",
      "properties": {
        "norad_id": 37214,
        "name": "FENGYUN 3B",
        "group": "weather",
        "lat": -34.43232746261609,
        "lon": 32.36363184777545,
        "alt_km": 835.9515068941846,
        "timestamp": "2025-12-12T03:50:52.059076+00:00",
        "meta_object_name": "FENGYUN 3B",
        "meta_object_id": "2010-059A",
        "meta_epoch": "2025-12-11T13:28:48.631008",
        "meta_mean_motion": 14.14790615,
        "meta_eccentricity": 0.00221318,
        "meta_inclination": 98.9905,
        "meta_ra_of_asc_node": 25.5302,
        "meta_arg_of_pericenter": 1.104,
        "meta_mean_anomaly": 156.836,
        "meta_ephemeris_type": 0,
        "meta_classification_type": "U",
        "meta_norad_cat_id": 37214,
        "meta_element_set_no": 999,
        "meta_rev_at_epoch": 78089,
        "meta_bstar": 0.00033260977,
        "meta_mean_motion_dot": 5.97e-06,
        "meta_mean_motion_ddot": 0,
        "tle_line1": "1 37214U 10059A   25345.56167397  .00000597  00000+0  33261-3 0  9993",
        "tle_line2": "2 37214  98.9905  25.5302 0022131   1.1040 156.8360 14.14790615780890"
      },
      "geometry": {
        "type": "Point",
        "coordinates": [
          32.36363184777545,
          -34.43232746261609
        ]
      }
    },
    {
      "type": "Feature",
      "properties": {
        "norad_id": 37849,
        "name": "SUOMI NPP",
        "group": "weather",
        "lat": 23.30942187553858,
        "lon": 107.32384295083418,
        "alt_km": 825.1753645484041,
        "timestamp": "2025-12-12T03:50:52.059087+00:00",
        "meta_object_name": "SUOMI NPP",
        "meta_object_id": "2011-061A",
        "meta_epoch": "2025-12-11T15:16:20.581248",
        "meta_mean_motion": 14.19513693,
        "meta_eccentricity": 0.00022095,
        "meta_inclination": 98.7772,
        "meta_ra_of_asc_node": 282.9878,
        "meta_arg_of_pericenter": 122.2573,
        "meta_mean_anomaly": 237.8817,
        "meta_ephemeris_type": 0,
        "meta_classification_type": "U",
        "meta_norad_cat_id": 37849,
        "meta_element_set_no": 999,
        "meta_rev_at_epoch": 73183,
        "meta_bstar": 0.00010729572,
        "meta_mean_motion_dot": 1.82e-06,
        "meta_mean_motion_ddot": 0,
        "tle_line1": "1 37849U 11061A   25345.63634932  .00000182  00000+0  10730-3 0  9999",
        "tle_line2": "2 37849  98.7772 282.9878 0002209 122.2573 237.8817 14.19513693731832"
      },
      "geometry": {
        "type": "Point",
        "coordinates": [
          107.32384295083418,
          23.30942187553858
        ]
      }
    },
    {
      "type": "Feature",
      "properties": {
        "norad_id": 38552,
        "name": "METEOSAT-10 (MSG-3)",
        "group": "weather",
        "lat": 4.131433600895329,
        "lon": 138.96251798006736,
        "alt_km": 35788.165280055124,
        "timestamp": "2025-12-12T03:50:52.059099+00:00",
        "meta_object_name": "METEOSAT-10 (MSG-3)",
        "meta_object_id": "2012-035B",
        "meta_epoch": "2025-12-10T23:48:54.537696",
        "meta_mean_motion": 1.00274457,
        "meta_eccentricity": 8.27e-05,
        "meta_inclination": 4.2251,
        "meta_ra_of_asc_node": 61.7286,
        "meta_arg_of_pericenter": 246.6369,
        "meta_mean_anomaly": 128.9806,
        "meta_ephemeris_type": 0,
        "meta_classification_type": "U",
        "meta_norad_cat_id": 38552,
        "meta_element_set_no": 999,
        "meta_rev_at_epoch": 4897,
        "meta_bstar": 0,
        "meta_mean_motion_dot": -1e-08,
        "meta_mean_motion_ddot": 0,
        "tle_line1": "1 38552U 12035B   25344.99229789 -.00000001  00000+0  00000+0 0  9997",
        "tle_line2": "2 38552   4.2251  61.7286 0000827 246.6369 128.9806  1.00274457 48974"
      },
      "geometry": {
        "type": "Point",
        "coordinates": [
          138.96251798006736,
          4.131433600895329
        ]
      }
    },
    {
      "type": "Feature",
      "properties": {
        "norad_id": 38771,
        "name": "METOP-B",
        "group": "weather",
        "lat": 4.382395008931456,
        "lon": 35.45811558017166,
        "alt_km": 824.5085644541086,
        "timestamp": "2025-12-12T03:50:52.059111+00:00",
        "meta_object_name": "METOP-B",
        "meta_object_id": "2012-049A",
        "meta_epoch": "2025-12-11T14:18:41.816448",
        "meta_mean_motion": 14.2140769,
        "meta_eccentricity": 0.00028597,
        "meta_inclination": 98.6801,
        "meta_ra_of_asc_node": 35.5745,
        "meta_arg_of_pericenter": 146.5695,
        "meta_mean_anomaly": 213.5664,
        "meta_ephemeris_type": 0,
        "meta_classification_type": "U",
        "meta_norad_cat_id": 38771,
        "meta_element_set_no": 999,
        "meta_rev_at_epoch": 68661,
        "meta_bstar": 0.0001186863,
        "meta_mean_motion_dot": 2.16e-06,
        "meta_mean_motion_ddot": 0,
        "tle_line1": "1 38771U 12049A   25345.59631732  .00000216  00000+0  11869-3 0  9993",
        "tle_line2": "2 38771  98.6801  35.5745 0002859 146.5695 213.5664 14.21407690686617"
      },
      "geometry": {
        "type": "Point",
        "coordinates": [
          35.45811558017166,
          4.382395008931456
        ]
      }
    },
    {
      "type": "Feature",
      "properties": {
        "norad_id": 39216,
        "name": "INSAT-3D",
        "group": "weather",
        "lat": -0.10272133039404417,
        "lon": -91.63316596172557,
        "alt_km": 35780.46850372988,
        "timestamp": "2025-12-12T03:50:52.059122+00:00",
        "meta_object_name": "INSAT-3D",
        "meta_object_id": "2013-038B",
        "meta_epoch": "2025-12-11T14:07:41.519136",
        "meta_mean_motion": 1.00270463,
        "meta_eccentricity": 0.00015226,
        "meta_inclination": 1.4423,
        "meta_ra_of_asc_node": 85.0014,
        "meta_arg_of_pericenter": 164.0183,
        "meta_mean_anomaly": 172.9911,
        "meta_ephemeris_type": 0,
        "meta_classification_type": "U",
        "meta_norad_cat_id": 39216,
        "meta_element_set_no": 999,
        "meta_rev_at_epoch": 4519,
        "meta_bstar": 0,
        "meta_mean_motion_dot": -3.32e-06,
        "meta_mean_motion_ddot": 0,
        "tle_line1": "1 39216U 13038B   25345.58867499 -.00000332  00000+0  00000+0 0  9998",
        "tle_line2": "2 39216   1.4423  85.0014 0001522 164.0183 172.9911  1.00270463 45190"
      },
      "geometry": {
        "type": "Point",
        "coordinates": [
          -91.63316596172557,
          -0.10272133039404417
        ]
      }
    },
    {
      "type": "Feature",
      "properties": {
        "norad_id": 39260,
        "name": "FENGYUN 3C",
        "group": "weather",
        "lat": -79.41800760080183,
        "lon": 90.90861125596398,
        "alt_km": 843.0597442583376,
        "timestamp": "2025-12-12T03:50:52.059134+00:00",
        "meta_object_name": "FENGYUN 3C",
        "meta_object_id": "2013-052A",
        "meta_epoch": "2025-12-11T14:43:58.602144",
        "meta_mean_motion": 14.15695765,
        "meta_eccentricity": 0.00142246,
        "meta_inclination": 98.4762,
        "meta_ra_of_asc_node": 323.3482,
        "meta_arg_of_pericenter": 199.3707,
        "meta_mean_anomaly": 160.6929,
        "meta_ephemeris_type": 0,
        "meta_classification_type": "U",
        "meta_norad_cat_id": 39260,
        "meta_element_set_no": 999,
        "meta_rev_at_epoch": 63202,
        "meta_bstar": 0.00012071065,
        "meta_mean_motion_dot": 1.96e-06,
        "meta_mean_motion_ddot": 0,
        "tle_line1": "1 39260U 13052A   25345.61387271  .00000196  00000+0  12071-3 0  9994",
        "tle_line2": "2 39260  98.4762 323.3482 0014224 199.3707 160.6929 14.15695765632027"
      },
      "geometry": {
        "type": "Point",
        "coordinates": [
          90.90861125596398,
          -79.41800760080183
        ]
      }
    }
  ]
}